ALOS-4 (DAICHI-4)       
1 60182U 24123A   24213.56435364  .00003867  00000+0  52452-3 0  9991
2 60182  97.9216 309.5911 0001484 107.2832 252.8542 14.79462103  4505
